[{"OBJECT_NAME":"IRIDIUM 173","OBJECT_ID":"2019-002D","EPOCH":"2022-08-18T19:35:27.932928","MEAN_MOTION":14.34216486,"ECCENTRICITY":0.0002499,"INCLINATION":86.3974,"RA_OF_ASC_NODE":217.9264,"ARG_OF_PERICENTER":84.9472,"MEAN_ANOMALY":275.2009,"EPHEMERIS_TYPE":0,"CLASSIFICATION_TYPE":"U","NORAD_CAT_ID":43925,"ELEMENT_SET_NO":999,"REV_AT_EPOCH":18852,"BSTAR":2.3732e-5,"MEAN_MOTION_DOT":8.6e-7,"MEAN_MOTION_DDOT":0},{"OBJECT_NAME":"IRIDIUM 169","OBJECT_ID":"2019-002E","EPOCH":"2022-08-18T11:39:26.468064","MEAN_MOTION":14.38603489,"ECCENTRICITY":0.000212,"INCLINATION":86.419,"RA_OF_ASC_NODE":249.6527,"ARG_OF_PERICENTER":267.5594,"MEAN_ANOMALY":92.5362,"EPHEMERIS_TYPE":0,"CLASSIFICATION_TYPE":"U","NORAD_CAT_ID":43926,"ELEMENT_SET_NO":999,"REV_AT_EPOCH":18913,"BSTAR":3.4529e-5,"MEAN_MOTION_DOT":1.26e-6,"MEAN_MOTION_DDOT":0},{"OBJECT_NAME":"IRIDIUM 172","OBJECT_ID":"2019-002F","EPOCH":"2022-08-18T16:05:23.561376","MEAN_MOTION":14.34219291,"ECCENTRICITY":0.0002541,"INCLINATION":86.3975,"RA_OF_ASC_NODE":217.9911,"ARG_OF_PERICENTER":84.0343,"MEAN_ANOMALY":276.1143,"EPHEMERIS_TYPE":0,"CLASSIFICATION_TYPE":"U","NORAD_CAT_ID":43927,"ELEMENT_SET_NO":999,"REV_AT_EPOCH":18851,"BSTAR":3.6098e-5,"MEAN_MOTION_DOT":1.21e-6,"MEAN_MOTION_DDOT":0},{"OBJECT_NAME":"IRIDIUM 175","OBJECT_ID":"2019-002G","EPOCH":"2022-08-18T17:12:47.779488","MEAN_MOTION":14.72258339,"ECCENTRICITY":0.0002534,"INCLINATION":86.6113,"RA_OF_ASC_NODE":217.8523,"ARG_OF_PERICENTER":85.4728,"MEAN_ANOMALY":274.6779,"EPHEMERIS_TYPE":0,"CLASSIFICATION_TYPE":"U","NORAD_CAT_ID":43928,"ELEMENT_SET_NO":999,"REV_AT_EPOCH":19348,"BSTAR":4.1069e-5,"MEAN_MOTION_DOT":2.84e-6,"MEAN_MOTION_DDOT":0},{"OBJECT_NAME":"IRIDIUM 171","OBJECT_ID":"2019-002H","EPOCH":"2022-08-18T17:18:27.518112","MEAN_MOTION":14.34217869,"ECCENTRICITY":0.0002407,"INCLINATION":86.3983,"RA_OF_ASC_NODE":218.1207,"ARG_OF_PERICENTER":82.3907,"MEAN_ANOMALY":277.7562,"EPHEMERIS_TYPE":0,"CLASSIFICATION_TYPE":"U","NORAD_CAT_ID":43929,"ELEMENT_SET_NO":999,"REV_AT_EPOCH":18851,"BSTAR":3.9214e-5,"MEAN_MOTION_DOT":1.3e-6,"MEAN_MOTION_DDOT":0},{"OBJECT_NAME":"IRIDIUM 170","OBJECT_ID":"2019-002J","EPOCH":"2022-08-18T12:36:58.084128","MEAN_MOTION":14.72253142,"ECCENTRICITY":0.0002343,"INCLINATION":86.611,"RA_OF_ASC_NODE":218.1053,"ARG_OF_PERICENTER":86.4908,"MEAN_ANOMALY":273.6577,"EPHEMERIS_TYPE":0,"CLASSIFICATION_TYPE":"U","NORAD_CAT_ID":43930,"ELEMENT_SET_NO":999,"REV_AT_EPOCH":19347,"BSTAR":3.953e-5,"MEAN_MOTION_DOT":2.74e-6,"MEAN_MOTION_DDOT":0},{"OBJECT_NAME":"IRIDIUM 167","OBJECT_ID":"2019-002K","EPOCH":"2022-08-18T17:09:18.897984","MEAN_MOTION":14.34219085,"ECCENTRICITY":0.0002638,"INCLINATION":86.3975,"RA_OF_ASC_NODE":217.9825,"ARG_OF_PERICENTER":82.5244,"MEAN_ANOMALY":277.6251,"EPHEMERIS_TYPE":0,"CLASSIFICATION_TYPE":"U","NORAD_CAT_ID":43931,"ELEMENT_SET_NO":999,"REV_AT_EPOCH":18851,"BSTAR":3.8701e-5,"MEAN_MOTION_DOT":1.28e-6,"MEAN_MOTION_DDOT":0}]