IRIDIUM 173             
1 43925U 19002D   22230.81629552  .00000086  00000+0  23732-4 0  9996
2 43925  86.3974 217.9264 0002499  84.9472 275.2009 14.34216486188529
IRIDIUM 169             
1 43926U 19002E   22230.48572301  .00000126  00000+0  34529-4 0  9990
2 43926  86.4190 249.6527 0002120 267.5594  92.5362 14.38603489189137
IRIDIUM 172             
1 43927U 19002F   22230.67041159  .00000121  00000+0  36098-4 0  9992
2 43927  86.3975 217.9911 0002541  84.0343 276.1143 14.34219291188512
IRIDIUM 175             
1 43928U 19002G   22230.71721967  .00000284  00000+0  41069-4 0  9994
2 43928  86.6113 217.8523 0002534  85.4728 274.6779 14.72258339193480
IRIDIUM 171             
1 43929U 19002H   22230.72115183  .00000130  00000+0  39214-4 0  9992
2 43929  86.3983 218.1207 0002407  82.3907 277.7562 14.34217869188513
IRIDIUM 170             
1 43930U 19002J   22230.52567227  .00000274  00000+0  39530-4 0  9992
2 43930  86.6110 218.1053 0002343  86.4908 273.6577 14.72253142193472
IRIDIUM 167             
1 43931U 19002K   22230.71480206  .00000128  00000+0  38701-4 0  9992
2 43931  86.3975 217.9825 0002638  82.5244 277.6251 14.34219085188518
